#aV2008  5  9  0  0   .00000000      96 DD+AD WGS84 FIT  NGA
## 1478 432000.00000000   900.00000000 54595  .0000000000000
+   31     2  3  4  5  6  7  8  9 10 11 12 13 14 15 16 17 18
+         19 20 21 22 23 24 25 26 27 28 29 30 31 32  0  0  0
+          0  0  0  0  0  0  0  0  0  0  0  0  0  0  0  0  0
+          0  0  0  0  0  0  0  0  0  0  0  0  0  0  0  0  0
+          0  0  0  0  0  0  0  0  0  0  0  0  0  0  0  0  0
++         0  0  0  0  0  0  0  0  0  0  0  0  0  0  0  0  0
++         0  0  0  0  0  0  0  0  0  0  0  0  0  0  0  0  0
++         0  0  0  0  0  0  0  0  0  0  0  0  0  0  0  0  0
++         0  0  0  0  0  0  0  0  0  0  0  0  0  0  0  0  0
++         0  0  0  0  0  0  0  0  0  0  0  0  0  0  0  0  0
%c cc cc ccc ccc cccc cccc cccc cccc ccccc ccccc ccccc ccccc
%c cc cc ccc ccc cccc cccc cccc cccc ccccc ccccc ccccc ccccc
%f  0.0000000  0.000000000  0.00000000000  0.000000000000000
%f  0.0000000  0.000000000  0.00000000000  0.000000000000000
%i    0    0    0    0      0      0      0      0         0
%i    0    0    0    0      0      0      0      0         0
/*      NGA, ST. LOUIS,MO.                                  
/*   EPHEMERIS COMPUTED FROM  3 DAYS OF DATA                
/* CCCCCCCCCCCCCCCCCCCCCCCCCCCCCCCCCCCCCCCCCCCCCCCCCCCCCCCCC
/* CCCCCCCCCCCCCCCCCCCCCCCCCCCCCCCCCCCCCCCCCCCCCCCCCCCCCCCCC
*  2008  5  9  1 45   .00000000                                                 
P  2 -22023.866346  12876.447404   6535.817729    200.980457                    
V  2  -9292.691406   -418.855956 -30097.586454       .043700                    
P  3  11202.958171 -20193.341079  12553.081100    225.494827                    
V  3   2059.574649  16800.580288  25041.720102       .051984                    
P  4 -25869.110168   5597.782596  -4023.175312    -63.170634                    
V  4   3740.144859  -4413.279562 -30581.346222      -.083880                    
P  5  12371.514903  20116.927682 -12562.579900    767.985358                    
V  5 -14120.672827  -6938.669928 -25421.227676       .087455                    
P  6  15883.810339  -9377.726943  19318.051185    122.410155                    
V  6  -2079.621472  24174.361990  13543.715055       .096746                    
P  7 -13124.473576 -10579.719142  20515.095603    -48.011330                    
V  7  24355.121817  -9386.737397  10662.248774       .097722                    
P  8 -23453.103902  -2010.765930  12668.249513   -152.192275                    
V  8  14991.412437  -5792.125645  26201.381890      -.015833                    
P  9  -2871.903674  16596.119202 -21127.677882    123.614917                    
V  9 -23968.729340   8474.623084  10383.815387       .017318                    
P 10 -10972.656133  10395.810655  21709.609329     -1.396833                    
V 10 -20629.905465 -18750.347382  -1119.111822      -.003220                    
P 11  -1989.066374 -17477.567837 -19988.145975     25.772085                    
V 11  22762.247509 -11445.733427   8134.269673      -.002805                    
P 12   7297.106517  20425.619902 -15299.381973   -359.171435                    
V 12 -16013.818137 -11377.562847 -22598.043841       .000112                    
P 13  -7711.669331 -17830.795112  18005.262824    254.417535                    
V 13   6393.494904 -22134.361632 -19031.982060       .017939                    
P 14  14681.939837    684.472097 -22018.366872   -268.844525                    
V 14  -5899.623527  27498.484664  -3157.891784       .041563                    
P 15  -6989.927924  25403.139715   3343.651524   -108.315150                    
V 15  -2098.981620  -4672.041637  31308.890617      -.054714                    
P 16  14975.021127  -6227.848541  21143.101319    125.835933                    
V 16  19409.937869  18230.285641  -8211.220390      -.013501                    
P 17 -15330.057789   -717.112849 -21628.918136     39.255649                    
V 17   5210.544558 -27078.719179  -2946.934691      -.002411                    
P 18  19561.937721  18257.407112     31.137102   -179.845894                    
V 18  -1864.485857   2250.514710  31233.131832       .037349                    
P 19   8364.778560 -24999.190262   2376.701655     29.352453                    
V 19   2215.626324   3619.220266  31603.606824       .009130                    
P 20  -9068.231264 -20743.365413 -14041.548790    114.779779                    
V 20  15078.678303   9477.623803 -23899.073686      -.008262                    
P 21  18655.633979   7741.276982  17724.628722     64.848059                    
V 21 -20472.708418   8224.533148  17529.014537      -.010583                    
P 22  21885.033720   8304.517225 -12447.339343    210.988680                    
V 22   9826.205296  12987.495492  25577.460941       .000617                    
P 23   -433.523075 -25254.508303   7736.454661    352.549831                    
V 23   4407.767706  -9296.250504 -30064.328689       .022516                    
P 24   3885.540573  14961.771959  21767.984965     92.431830                    
V 24 -26165.584175   7673.504283   -333.144603       .028940                    
P 25  -6053.095465 -14051.356483  22075.963346   -137.813350                    
V 25  24673.837374 -11325.805834   -271.903428      -.270609                    
P 26  -9719.839307  23500.604689   6089.986893    249.178464                    
V 26   -204.500087  -8759.205922  31558.980735       .082084                    
P 27 -15627.675557  -8645.435074  20374.490877    187.051715                    
V 27  22160.363326 -10096.438414  13012.742683       .027214                    
P 28 -22115.084995 -10368.287998 -10451.010667    -18.796615                    
V 28  -8612.277305 -10919.684839  27703.112952      -.005001                    
P 29   6729.950284  20579.424820  15522.727166    -43.274684                    
V 29  -5983.614369  18648.319752 -22274.100667       .002095                    
P 30  17078.814032  19497.246844  -6378.948182     75.566010                    
V 30  -7816.019361  -2484.376982 -30017.737485       .016738                    
P 31  25472.180472  -7375.608275  -2128.783417    -19.251988                    
V 31  -1947.908173   3336.451684 -31687.578693      -.012890                    
P 32   8521.741893 -12388.751840 -21491.831637    282.073296                    
V 32  19890.974063  20064.000613  -3440.465297       .056616                    
EOF
